{
  "norad_id": 62742,
  "name": "STARLINK-32775",
  "history": [
    {
      "epoch": "2026-03-28T07:06:13.676832Z",
      "apogee_km": 484.0087715550453,
      "perigee_km": 481.91064818116683,
      "latitude_deg": -7.169948639321089e-06,
      "longitude_deg": 116.97712720029597,
      "height_km": 482.8800048458959,
      "semi_major_axis_km": 6861.096709868106,
      "eccentricity": 0.0001529,
      "inclination_deg": 43.0025,
      "raan_deg": 49.2526,
      "arg_perigee_deg": 262.1521,
      "mean_anomaly_deg": 97.9157,
      "mean_motion_rev_day": 15.27609852
    },
    {
      "epoch": "2026-03-29T05:04:25.106880Z",
      "apogee_km": 484.09664195731966,
      "perigee_km": 481.76799503062284,
      "latitude_deg": -3.883430002810494e-05,
      "longitude_deg": 141.35759872867655,
      "height_km": 482.78301979588935,
      "semi_major_axis_km": 6861.069318493971,
      "eccentricity": 0.0001697,
      "inclination_deg": 43.0009,
      "raan_deg": 44.083,
      "arg_perigee_deg": 266.3722,
      "mean_anomaly_deg": 93.6935,
      "mean_motion_rev_day": 15.27619
    },
    {
      "epoch": "2026-03-30T04:36:45.160704Z",
      "apogee_km": 484.6751607719225,
      "perigee_km": 481.1472097950491,
      "latitude_deg": -2.8776051800225327e-05,
      "longitude_deg": 141.76664404886802,
      "height_km": 483.10493703897396,
      "semi_major_axis_km": 6861.0481852834855,
      "eccentricity": 0.0002571,
      "inclination_deg": 43.0022,
      "raan_deg": 38.5423,
      "arg_perigee_deg": 256.3581,
      "mean_anomaly_deg": 103.6984,
      "mean_motion_rev_day": 15.27626058
    },
    {
      "epoch": "2026-03-30T04:36:45.161568Z",
      "apogee_km": 484.67529799288695,
      "perigee_km": 481.14707257408554,
      "latitude_deg": 4.135466027535534e-05,
      "longitude_deg": 141.76671522368943,
      "height_km": 483.10496349164265,
      "semi_major_axis_km": 6861.0481852834855,
      "eccentricity": 0.00025712,
      "inclination_deg": 43.0022,
      "raan_deg": 38.5423,
      "arg_perigee_deg": 256.3581,
      "mean_anomaly_deg": 103.6985,
      "mean_motion_rev_day": 15.27626058
    },
    {
      "epoch": "2026-03-31T05:43:16.723200Z",
      "apogee_km": 484.09944890665065,
      "perigee_km": 482.0205062224477,
      "latitude_deg": -5.237298982574609e-06,
      "longitude_deg": 118.1973795841755,
      "height_km": 482.85519857434065,
      "semi_major_axis_km": 6861.196977564548,
      "eccentricity": 0.0001515,
      "inclination_deg": 43.0037,
      "raan_deg": 32.6357,
      "arg_perigee_deg": 269.007,
      "mean_anomaly_deg": 91.0608,
      "mean_motion_rev_day": 15.27576366
    },
    {
      "epoch": "2026-04-01T05:15:36.579168Z",
      "apogee_km": 484.3815795824621,
      "perigee_km": 481.63163322501623,
      "latitude_deg": -3.5553342562675556e-05,
      "longitude_deg": 118.61220922531045,
      "height_km": 483.2299246327972,
      "semi_major_axis_km": 6861.143606403739,
      "eccentricity": 0.0002004,
      "inclination_deg": 43.0044,
      "raan_deg": 27.1,
      "arg_perigee_deg": 251.0817,
      "mean_anomaly_deg": 108.9817,
      "mean_motion_rev_day": 15.2759419
    },
    {
      "epoch": "2026-04-02T18:55:21.330048Z",
      "apogee_km": 482.9195974953609,
      "perigee_km": 482.64927719072966,
      "latitude_deg": 1.3833120991020865e-05,
      "longitude_deg": -96.73343967197154,
      "height_km": 482.4795940539658,
      "semi_major_axis_km": 6860.921437343045,
      "eccentricity": 1.97e-05,
      "inclination_deg": 43.0013,
      "raan_deg": 18.2375,
      "arg_perigee_deg": 53.5858,
      "mean_anomaly_deg": 306.5012,
      "mean_motion_rev_day": 15.2766839
    },
    {
      "epoch": "2026-04-02T18:55:21.330912Z",
      "apogee_km": 482.9192544492889,
      "perigee_km": 482.64962023680164,
      "latitude_deg": 1.699369732667681e-05,
      "longitude_deg": -96.73343991140933,
      "height_km": 482.47979766431274,
      "semi_major_axis_km": 6860.921437343045,
      "eccentricity": 1.965e-05,
      "inclination_deg": 43.0013,
      "raan_deg": 18.2375,
      "arg_perigee_deg": 53.5858,
      "mean_anomaly_deg": 306.5012,
      "mean_motion_rev_day": 15.2766839
    },
    {
      "epoch": "2026-04-03T18:27:43.949952Z",
      "apogee_km": 483.5175706345308,
      "perigee_km": 482.67363902413763,
      "latitude_deg": -2.173346873124405e-05,
      "longitude_deg": -96.3354648111221,
      "height_km": 482.99586726514275,
      "semi_major_axis_km": 6861.232604829334,
      "eccentricity": 6.15e-05,
      "inclination_deg": 43.0048,
      "raan_deg": 12.6965,
      "arg_perigee_deg": 252.9452,
      "mean_anomaly_deg": 107.1332,
      "mean_motion_rev_day": 15.27564468
    },
    {
      "epoch": "2026-04-04T11:43:26.235840Z",
      "apogee_km": 484.5439622713802,
      "perigee_km": 481.05352981993747,
      "latitude_deg": 3.0980819051331835e-05,
      "longitude_deg": -0.03351501145687064,
      "height_km": 482.988024611424,
      "semi_major_axis_km": 6860.935746045659,
      "eccentricity": 0.00025437,
      "inclination_deg": 43.0089,
      "raan_deg": 8.6335,
      "arg_perigee_deg": 256.3841,
      "mean_anomaly_deg": 103.6728,
      "mean_motion_rev_day": 15.27663611
    },
    {
      "epoch": "2026-04-05T14:24:07.178976Z",
      "apogee_km": 484.5785902556254,
      "perigee_km": 481.6104215061823,
      "latitude_deg": -5.916830833768788e-06,
      "longitude_deg": -47.57418047190252,
      "height_km": 483.3837113438755,
      "semi_major_axis_km": 6861.231505880904,
      "eccentricity": 0.0002163,
      "inclination_deg": 43.0044,
      "raan_deg": 2.3591,
      "arg_perigee_deg": 249.8355,
      "mean_anomaly_deg": 110.2264,
      "mean_motion_rev_day": 15.27564835
    },
    {
      "epoch": "2026-04-05T14:24:07.179840Z",
      "apogee_km": 484.578315806365,
      "perigee_km": 481.6106959554427,
      "latitude_deg": -8.867617354210137e-06,
      "longitude_deg": -47.574187228119946,
      "height_km": 483.3836167497421,
      "semi_major_axis_km": 6861.231505880904,
      "eccentricity": 0.00021626,
      "inclination_deg": 43.0044,
      "raan_deg": 2.3591,
      "arg_perigee_deg": 249.8355,
      "mean_anomaly_deg": 110.2264,
      "mean_motion_rev_day": 15.27564835
    },
    {
      "epoch": "2026-04-06T02:57:22.520448Z",
      "apogee_km": 484.1574568941842,
      "perigee_km": 481.9294943701361,
      "latitude_deg": 2.309223308710467e-05,
      "longitude_deg": 120.64274143972237,
      "height_km": 482.8526494297939,
      "semi_major_axis_km": 6861.18047563216,
      "eccentricity": 0.00016236,
      "inclination_deg": 43.0022,
      "raan_deg": 359.4055,
      "arg_perigee_deg": 268.3512,
      "mean_anomaly_deg": 91.7154,
      "mean_motion_rev_day": 15.27581877
    },
    {
      "epoch": "2026-04-07T10:20:29.473152Z",
      "apogee_km": 484.13834060522186,
      "perigee_km": 481.7605624845737,
      "latitude_deg": -3.066870321748039e-05,
      "longitude_deg": 1.188664055518706,
      "height_km": 482.65512335183166,
      "semi_major_axis_km": 6861.0864515448975,
      "eccentricity": 0.00017328,
      "inclination_deg": 43.0035,
      "raan_deg": 352.0194,
      "arg_perigee_deg": 273.4573,
      "mean_anomaly_deg": 86.608,
      "mean_motion_rev_day": 15.27613278
    },
    {
      "epoch": "2026-04-08T09:52:48.660384Z",
      "apogee_km": 484.1257954112225,
      "perigee_km": 481.79535500882685,
      "latitude_deg": 3.852806605343446e-07,
      "longitude_deg": 1.601548884667688,
      "height_km": 482.5339944072609,
      "semi_major_axis_km": 6861.097575210025,
      "eccentricity": 0.00016983,
      "inclination_deg": 43.0024,
      "raan_deg": 346.4789,
      "arg_perigee_deg": 280.0728,
      "mean_anomaly_deg": 79.9932,
      "mean_motion_rev_day": 15.27609563
    },
    {
      "epoch": "2026-04-09T01:34:23.745504Z",
      "apogee_km": 484.0969558309198,
      "perigee_km": 482.0890854776744,
      "latitude_deg": -1.281065501257992e-06,
      "longitude_deg": 121.86946523867492,
      "height_km": 482.84529994901806,
      "semi_major_axis_km": 6861.230020654297,
      "eccentricity": 0.00014632,
      "inclination_deg": 43.0033,
      "raan_deg": 342.7875,
      "arg_perigee_deg": 271.4182,
      "mean_anomaly_deg": 88.6502,
      "mean_motion_rev_day": 15.27565331
    },
    {
      "epoch": "2026-04-10T01:06:45.348480Z",
      "apogee_km": 484.04419123517073,
      "perigee_km": 482.04607777396086,
      "latitude_deg": 1.388760094738981e-05,
      "longitude_deg": 122.27394008190073,
      "height_km": 482.8115226328606,
      "semi_major_axis_km": 6861.1821345045655,
      "eccentricity": 0.00014561,
      "inclination_deg": 43.0032,
      "raan_deg": 337.2487,
      "arg_perigee_deg": 270.6146,
      "mean_anomaly_deg": 89.4539,
      "mean_motion_rev_day": 15.27581323
    },
    {
      "epoch": "2026-04-11T08:29:52.359936Z",
      "apogee_km": 484.0980967160922,
      "perigee_km": 481.95878533158066,
      "latitude_deg": 2.5572833941472066e-05,
      "longitude_deg": 2.817087625227649,
      "height_km": 482.94678020716447,
      "semi_major_axis_km": 6861.165441023836,
      "eccentricity": 0.0001559,
      "inclination_deg": 43.0059,
      "raan_deg": 329.86,
      "arg_perigee_deg": 262.4316,
      "mean_anomaly_deg": 97.6359,
      "mean_motion_rev_day": 15.27586898
    },
    {
      "epoch": "2026-04-12T23:43:47.777952Z",
      "apogee_km": 483.5951651606056,
      "perigee_km": 482.4699333545277,
      "latitude_deg": -5.734820319671381e-05,
      "longitude_deg": 123.49648582132606,
      "height_km": 482.92824503867564,
      "semi_major_axis_km": 6861.169549257566,
      "eccentricity": 8.2e-05,
      "inclination_deg": 43.0029,
      "raan_deg": 320.6316,
      "arg_perigee_deg": 257.768,
      "mean_anomaly_deg": 102.3079,
      "mean_motion_rev_day": 15.27585526
    }
  ]
}